start=new Date('2022-11-05T00:00:00.000Z').valueOf();
sats=[{"TLE_LINE1":"1 45693U 20035AN  22308.56892335  .00002775  00000-0  20512-3 0  9997","OBJECT_ID":"2020-035AN","RCS_SIZE":"LARGE","FILE":"3644787","INCLINATION":"53.0545","GP_ID":"216901107","CENTER_NAME":"EARTH","RA_OF_ASC_NODE":"138.4569","MEAN_ELEMENT_THEORY":"SGP4","COUNTRY_CODE":"US","EPOCH":"2022-11-04T13:39:14.977440","SEMIMAJOR_AXIS":"6925.348","MEAN_MOTION_DDOT":"0.0000000000000","REV_AT_EPOCH":"13481","NORAD_CAT_ID":"45693","MEAN_MOTION":"15.06400229","ARG_OF_PERICENTER":"118.9924","MEAN_ANOMALY":"241.1203","DECAY_DATE":null,"OBJECT_TYPE":"PAYLOAD","MEAN_MOTION_DOT":"0.00002775","TLE_LINE2":"2 45693  53.0545 138.4569 0001370 118.9924 241.1203 15.06400229134811","ELEMENT_SET_NO":"999","CLASSIFICATION_TYPE":"U","TIME_SYSTEM":"UTC","ECCENTRICITY":"0.00013700","REF_FRAME":"TEME","PERIOD":"95.592","APOAPSIS":"548.162","SITE":"AFETR","BSTAR":"0.00020512000000","OBJECT_NAME":"STARLINK-1417","LAUNCH_DATE":"2020-06-04","PERIAPSIS":"546.264","EPHEMERIS_TYPE":"0"},{"MEAN_MOTION_DDOT":"0.0000000000000","REV_AT_EPOCH":"13486","SEMIMAJOR_AXIS":"6915.039","RA_OF_ASC_NODE":"136.3614","CENTER_NAME":"EARTH","COUNTRY_CODE":"US","MEAN_ELEMENT_THEORY":"SGP4","EPOCH":"2022-11-04T19:37:23.433312","GP_ID":"216933114","RCS_SIZE":"LARGE","FILE":"3645105","INCLINATION":"53.0520","OBJECT_ID":"2020-035AP","TLE_LINE1":"1 45694U 20035AP  22308.81763233  .00029948  00000-0  18441-2 0  9998","EPHEMERIS_TYPE":"0","PERIAPSIS":"535.887","OBJECT_NAME":"STARLINK-1419","LAUNCH_DATE":"2020-06-04","REF_FRAME":"TEME","ECCENTRICITY":"0.00014710","PERIOD":"95.379","SITE":"AFETR","APOAPSIS":"537.921","BSTAR":"0.00184410000000","MEAN_MOTION_DOT":"0.00029948","ELEMENT_SET_NO":"999","TLE_LINE2":"2 45694  53.0520 136.3614 0001471 136.0205 224.0903 15.09770155134861","CLASSIFICATION_TYPE":"U","TIME_SYSTEM":"UTC","OBJECT_TYPE":"PAYLOAD","MEAN_ANOMALY":"224.0903","DECAY_DATE":null,"MEAN_MOTION":"15.09770155","NORAD_CAT_ID":"45694","ARG_OF_PERICENTER":"136.0205"},{"CENTER_NAME":"EARTH","RA_OF_ASC_NODE":"117.2419","COUNTRY_CODE":"US","MEAN_ELEMENT_THEORY":"SGP4","EPOCH":"2022-11-04T20:02:41.973792","SEMIMAJOR_AXIS":"6925.358","MEAN_MOTION_DDOT":"0.0000000000000","REV_AT_EPOCH":"13514","TLE_LINE1":"1 45695U 20035AQ  22308.83520803  .00000893  00000-0  78838-4 0  9991","OBJECT_ID":"2020-035AQ","RCS_SIZE":"LARGE","FILE":"3645105","INCLINATION":"53.0569","GP_ID":"216932864","ECCENTRICITY":"0.00015670","REF_FRAME":"TEME","PERIOD":"95.592","SITE":"AFETR","APOAPSIS":"548.308","BSTAR":"0.00007883800000","OBJECT_NAME":"STARLINK-1420","LAUNCH_DATE":"2020-06-04","PERIAPSIS":"546.138","EPHEMERIS_TYPE":"0","NORAD_CAT_ID":"45695","MEAN_MOTION":"15.06396867","ARG_OF_PERICENTER":"102.5186","MEAN_ANOMALY":"257.5978","DECAY_DATE":null,"OBJECT_TYPE":"PAYLOAD","MEAN_MOTION_DOT":"0.00000893","ELEMENT_SET_NO":"999","TLE_LINE2":"2 45695  53.0569 117.2419 0001567 102.5186 257.5978 15.06396867135144","CLASSIFICATION_TYPE":"U","TIME_SYSTEM":"UTC"},{"SITE":"AFETR","BSTAR":"0.00009868600000","APOAPSIS":"548.238","PERIOD":"95.592","ECCENTRICITY":"0.00014910","REF_FRAME":"TEME","LAUNCH_DATE":"2020-06-04","OBJECT_NAME":"STARLINK-1422","PERIAPSIS":"546.173","EPHEMERIS_TYPE":"0","ARG_OF_PERICENTER":"99.8628","NORAD_CAT_ID":"45696","MEAN_MOTION":"15.06402535","DECAY_DATE":null,"MEAN_ANOMALY":"260.2529","OBJECT_TYPE":"PAYLOAD","CLASSIFICATION_TYPE":"U","TIME_SYSTEM":"UTC","TLE_LINE2":"2 45696  53.0537 137.1947 0001491  99.8628 260.2529 15.06402535134852","ELEMENT_SET_NO":"999","MEAN_MOTION_DOT":"0.00001189","EPOCH":"2022-11-04T20:17:19.472928","MEAN_ELEMENT_THEORY":"SGP4","COUNTRY_CODE":"US","CENTER_NAME":"EARTH","RA_OF_ASC_NODE":"137.1947","SEMIMAJOR_AXIS":"6925.341","REV_AT_EPOCH":"13485","MEAN_MOTION_DDOT":"0.0000000000000","TLE_LINE1":"1 45696U 20035AR  22308.84536427  .00001189  00000-0  98686-4 0  9994","OBJECT_ID":"2020-035AR","INCLINATION":"53.0537","FILE":"3645105","RCS_SIZE":"LARGE","GP_ID":"216934114"},{"EPHEMERIS_TYPE":"0","PERIAPSIS":"546.172","OBJECT_NAME":"STARLINK-1351","LAUNCH_DATE":"2020-06-04","ECCENTRICITY":"0.00015120","REF_FRAME":"TEME","PERIOD":"95.592","BSTAR":"0.00013059000000","SITE":"AFETR","APOAPSIS":"548.266","MEAN_MOTION_DOT":"0.00001664","TLE_LINE2":"2 45697  53.0536 117.6182 0001512 108.9023 251.2130 15.06398264135134","ELEMENT_SET_NO":"999","CLASSIFICATION_TYPE":"U","TIME_SYSTEM":"UTC","OBJECT_TYPE":"PAYLOAD","MEAN_ANOMALY":"251.2130","DECAY_DATE":null,"MEAN_MOTION":"15.06398264","NORAD_CAT_ID":"45697","ARG_OF_PERICENTER":"108.9023","MEAN_MOTION_DDOT":"0.0000000000000","REV_AT_EPOCH":"13513","SEMIMAJOR_AXIS":"6925.354","RA_OF_ASC_NODE":"117.6182","CENTER_NAME":"EARTH","MEAN_ELEMENT_THEORY":"SGP4","COUNTRY_CODE":"US","EPOCH":"2022-11-04T18:07:17.215104","GP_ID":"216933853","FILE":"3645105","RCS_SIZE":"LARGE","INCLINATION":"53.0536","OBJECT_ID":"2020-035AS","TLE_LINE1":"1 45697U 20035AS  22308.75506036  .00001664  00000-0  13059-3 0  9996"},{"TLE_LINE1":"1 45698U 20035AT  22308.74304770  .00001081  00000-0  91433-4 0  9993","OBJECT_ID":"2020-035AT","RCS_SIZE":"LARGE","FILE":"3645105","INCLINATION":"53.0547","GP_ID":"216932614","RA_OF_ASC_NODE":"117.6560","CENTER_NAME":"EARTH","COUNTRY_CODE":"US","MEAN_ELEMENT_THEORY":"SGP4","EPOCH":"2022-11-04T17:49:59.321280","SEMIMAJOR_AXIS":"6925.351","MEAN_MOTION_DDOT":"0.0000000000000","REV_AT_EPOCH":"13513","MEAN_MOTION":"15.06399318","NORAD_CAT_ID":"45698","ARG_OF_PERICENTER":"108.5156","MEAN_ANOMALY":"251.5956","DECAY_DATE":null,"OBJECT_TYPE":"PAYLOAD","MEAN_MOTION_DOT":"0.00001081","TLE_LINE2":"2 45698  53.0547 117.6560 0001132 108.5156 251.5956 15.06399318135138","ELEMENT_SET_NO":"999","TIME_SYSTEM":"UTC","CLASSIFICATION_TYPE":"U","ECCENTRICITY":"0.00011320","REF_FRAME":"TEME","PERIOD":"95.592","SITE":"AFETR","BSTAR":"0.00009143300000","APOAPSIS":"548.000","OBJECT_NAME":"STARLINK-1370","LAUNCH_DATE":"2020-06-04","PERIAPSIS":"546.432","EPHEMERIS_TYPE":"0"},{"OBJECT_ID":"2020-035AU","TLE_LINE1":"1 45699U 20035AU  22308.60025216  .00008830  00000-0  61068-3 0  9993","GP_ID":"216933364","INCLINATION":"53.0522","FILE":"3645105","RCS_SIZE":"LARGE","COUNTRY_CODE":"US","MEAN_ELEMENT_THEORY":"SGP4","EPOCH":"2022-11-04T14:24:21.786624","RA_OF_ASC_NODE":"118.3118","CENTER_NAME":"EARTH","MEAN_MOTION_DDOT":"0.0000000000000","REV_AT_EPOCH":"13510","SEMIMAJOR_AXIS":"6925.306","DECAY_DATE":null,"MEAN_ANOMALY":"225.4632","ARG_OF_PERICENTER":"134.6481","NORAD_CAT_ID":"45699","MEAN_MOTION":"15.06413979","TLE_LINE2":"2 45699  53.0522 118.3118 0001521 134.6481 225.4632 15.06413979135100","ELEMENT_SET_NO":"999","TIME_SYSTEM":"UTC","CLASSIFICATION_TYPE":"U","MEAN_MOTION_DOT":"0.00008830","OBJECT_TYPE":"PAYLOAD","LAUNCH_DATE":"2020-06-04","OBJECT_NAME":"STARLINK-1398","APOAPSIS":"548.224","SITE":"AFETR","BSTAR":"0.00061068000000","ECCENTRICITY":"0.00015210","REF_FRAME":"TEME","PERIOD":"95.591","EPHEMERIS_TYPE":"0","PERIAPSIS":"546.117"},{"SEMIMAJOR_AXIS":"6925.333","REV_AT_EPOCH":"13512","MEAN_MOTION_DDOT":"0.0000000000000","EPOCH":"2022-11-04T17:30:08.668800","MEAN_ELEMENT_THEORY":"SGP4","COUNTRY_CODE":"US","CENTER_NAME":"EARTH","RA_OF_ASC_NODE":"117.7218","INCLINATION":"53.0558","FILE":"3645105","RCS_SIZE":"LARGE","GP_ID":"216933614","TLE_LINE1":"1 45700U 20035AV  22308.72926700 -.00000890  00000-0 -40881-4 0  9998","OBJECT_ID":"2020-035AV","PERIAPSIS":"546.224","EPHEMERIS_TYPE":"0","APOAPSIS":"548.171","SITE":"AFETR","BSTAR":"-0.00004088100000","PERIOD":"95.592","ECCENTRICITY":"0.00014060","REF_FRAME":"TEME","LAUNCH_DATE":"2020-06-04","OBJECT_NAME":"STARLINK-1400","OBJECT_TYPE":"PAYLOAD","TIME_SYSTEM":"UTC","CLASSIFICATION_TYPE":"U","ELEMENT_SET_NO":"999","TLE_LINE2":"2 45700  53.0558 117.7218 0001406 120.3819 239.7309 15.06405185135126","MEAN_MOTION_DOT":"-0.00000890","ARG_OF_PERICENTER":"120.3819","NORAD_CAT_ID":"45700","MEAN_MOTION":"15.06405185","DECAY_DATE":null,"MEAN_ANOMALY":"239.7309"},{"PERIAPSIS":"546.343","EPHEMERIS_TYPE":"0","APOAPSIS":"548.032","SITE":"AFETR","BSTAR":"0.00020180000000","PERIOD":"95.592","REF_FRAME":"TEME","ECCENTRICITY":"0.00012190","LAUNCH_DATE":"2020-06-04","OBJECT_NAME":"STARLINK-1403","OBJECT_TYPE":"PAYLOAD","CLASSIFICATION_TYPE":"U","TIME_SYSTEM":"UTC","ELEMENT_SET_NO":"999","TLE_LINE2":"2 45701  53.0528 117.3015 0001219  94.2797 265.8332 15.06408448135133","MEAN_MOTION_DOT":"0.00002726","ARG_OF_PERICENTER":"94.2797","MEAN_MOTION":"15.06408448","NORAD_CAT_ID":"45701","DECAY_DATE":null,"MEAN_ANOMALY":"265.8332","SEMIMAJOR_AXIS":"6925.323","REV_AT_EPOCH":"13513","MEAN_MOTION_DDOT":"0.0000000000000","EPOCH":"2022-11-04T19:48:07.575552","MEAN_ELEMENT_THEORY":"SGP4","COUNTRY_CODE":"US","CENTER_NAME":"EARTH","RA_OF_ASC_NODE":"117.3015","INCLINATION":"53.0528","FILE":"3645105","RCS_SIZE":"LARGE","GP_ID":"216934354","TLE_LINE1":"1 45701U 20035AW  22308.82508768  .00002726  00000-0  20180-3 0  9997","OBJECT_ID":"2020-035AW"},{"OBJECT_NAME":"STARLINK-1405","LAUNCH_DATE":"2020-06-04","ECCENTRICITY":"0.00011910","REF_FRAME":"TEME","PERIOD":"95.592","BSTAR":"0.00026699000000","SITE":"AFETR","APOAPSIS":"548.028","EPHEMERIS_TYPE":"0","PERIAPSIS":"546.378","MEAN_ANOMALY":"229.2602","DECAY_DATE":null,"MEAN_MOTION":"15.06403389","NORAD_CAT_ID":"45702","ARG_OF_PERICENTER":"130.8490","MEAN_MOTION_DOT":"0.00003698","ELEMENT_SET_NO":"999","TLE_LINE2":"2 45702  53.0541 117.0783 0001191 130.8490 229.2602 15.06403389135148","CLASSIFICATION_TYPE":"U","TIME_SYSTEM":"UTC","OBJECT_TYPE":"PAYLOAD","CENTER_NAME":"EARTH","RA_OF_ASC_NODE":"117.0783","MEAN_ELEMENT_THEORY":"SGP4","COUNTRY_CODE":"US","EPOCH":"2022-11-04T20:57:08.086464","MEAN_MOTION_DDOT":"0.0000000000000","REV_AT_EPOCH":"13514","SEMIMAJOR_AXIS":"6925.338","OBJECT_ID":"2020-035AX","TLE_LINE1":"1 45702U 20035AX  22308.87301026  .00003698  00000-0  26699-3 0  9991","GP_ID":"216933115","FILE":"3645105","RCS_SIZE":"LARGE","INCLINATION":"53.0541"}];
